STARLINK-4643           
1 54824U 22177E   25283.25358019 -.00000457  00000+0 -18733-4 0  9998
2 54824  43.0044 230.9469 0001232 268.7881  91.2820 15.02547113154327
STARLINK-5107           
1 54826U 22177G   25283.24470523  .00001171  00000+0  10179-3 0  9991
2 54826  43.0041 230.8830 0001149 273.1622  86.9089 15.02532285154329
STARLINK-5383           
1 54827U 22177H   25283.23693837 -.00000123  00000+0  59675-5 0  9999
2 54827  43.0031 230.8221 0000886 273.2990  86.7751 15.02531849154339
STARLINK-5381           
1 54828U 22177J   25283.23360702 -.00000968  00000+0 -56550-4 0  9998
2 54828  43.0035 230.7986 0001338 277.1443  82.9247 15.02543239154323
STARLINK-5394           
1 54830U 22177L   25283.29453792 -.00000338  00000+0 -99592-5 0  9994
2 54830  43.0039 230.3912 0001055 271.0606  89.0116 15.02531472154335
STARLINK-5395           
1 54831U 22177M   25283.18044294 -.00000379  00000+0 -12950-4 0  9993
2 54831  43.0038 231.2478 0001193 266.2821  93.7885 15.02543858154314
STARLINK-5393           
1 54832U 22177N   25281.14510905  .00815111  32805-3  13129-2 0  9990
2 54832  42.9958 201.0894 0000942 135.3533 224.7423 16.02715955154480
STARLINK-5391           
1 54833U 22177P   25283.23470644  .00000858  00000+0  78602-4 0  9999
2 54833  43.0038 230.8063 0001312 270.8162  89.2530 15.02543039154322
STARLINK-5386           
1 54834U 22177Q   25283.22694611 -.00000166  00000+0  28117-5 0  9991
2 54834  43.0043 230.7457 0001336 271.2942  88.7747 15.02533749154334
STARLINK-5389           
1 54835U 22177R   25283.23138794 -.00000488  00000+0 -21051-4 0  9995
2 54835  43.0038 230.7820 0001276 275.6314  84.4383 15.02537985154321
STARLINK-5384           
1 54836U 22177S   25283.22361530  .00001268  00000+0  10891-3 0  9995
2 54836  43.0041 230.7175 0001275 266.5397  93.5299 15.02533771154335
STARLINK-5369           
1 54837U 22177T   25283.29120620  .00000504  00000+0  52409-4 0  9990
2 54837  43.0034 230.3667 0001144 268.5599  91.5112 15.02538091154333
STARLINK-5372           
1 54838U 22177U   25283.28343618 -.00000390  00000+0 -13777-4 0  9994
2 54838  43.0037 230.3092 0001157 269.8384  90.2325 15.02534486154335
STARLINK-5368           
1 54840U 22177W   25283.20808207 -.00000040  00000+0  12082-4 0  9998
2 54840  43.0021 230.6047 0001301 270.0465  90.0228 15.02532344154329
STARLINK-4659           
1 54841U 22177X   25283.22028687 -.00000045  00000+0  11778-4 0  9993
2 54841  43.0042 230.6959 0001336 267.5214  92.5476 15.02533239154322
STARLINK-5387           
1 54842U 22177Y   25282.93551096  .00000250  00000+0  33553-4 0  9998
2 54842  43.0026 231.9997 0000957 237.4670 122.6080 15.02532921154289
STARLINK-5304           
1 54843U 22177Z   25283.21362745  .00000759  00000+0  71283-4 0  9998
2 54843  43.0036 230.6472 0001251 271.9574  88.1125 15.02535003154324
STARLINK-5388           
1 54844U 22177AA  25283.26343210 -.00015234  00000+0 -11129-2 0  9997
2 54844  43.0035 230.1393 0001826 260.7251  99.3385 15.02607477154335
STARLINK-5082           
1 54845U 22177AB  25283.27122788  .00000171  00000+0  27695-4 0  9993
2 54845  43.0015 230.2183 0000679 309.2066  50.8716 15.02533148154333
STARLINK-5360           
1 54846U 22177AC  25283.26456620  .00000045  00000+0  18419-4 0  9992
2 54846  43.0037 230.1698 0001320 260.3617  99.7076 15.02534048154332
STARLINK-5061           
1 54847U 22177AD  25283.22524063  .00003440  00000+0  26959-3 0  9995
2 54847  43.0032 204.7221 0001418 269.6292  90.4388 15.02538468154622
STARLINK-5432           
1 54848U 22177AE  25283.19846065  .00001009  00000+0  89752-4 0  9991
2 54848  43.0028 218.3815 0001332 269.9930  90.0759 15.02534024154469
STARLINK-5087           
1 54850U 22177AG  25283.19402168  .00000938  00000+0  84480-4 0  9999
2 54850  43.0032 218.3460 0000976 273.3801  86.6929 15.02537656154466
STARLINK-5084           
1 54851U 22177AH  25283.19735529  .00000163  00000+0  27136-4 0  9995
2 54851  43.0039 218.3747 0001124 272.0091  88.0623 15.02532146154461
STARLINK-5418           
1 54852U 22177AJ  25283.18736210  .00000018  00000+0  16404-4 0  9998
2 54852  43.0030 218.2965 0001288 269.8514  90.2181 15.02536162154465
STARLINK-5427           
1 54853U 22177AK  25283.25716875  .00000192  00000+0  29283-4 0  9994
2 54853  43.0032 217.9641 0001359 268.9357  91.1330 15.02535703154476
STARLINK-5416           
1 54855U 22177AM  25283.25051185  .00001598  00000+0  13336-3 0  9994
2 54855  43.0034 217.9133 0001153 263.8480  96.2231 15.02530188154477
STARLINK-5086           
1 54856U 22177AN  25283.23052594  .00001260  00000+0  10832-3 0  9992
2 54856  43.0042 217.7623 0001155 266.5664  93.5046 15.02541102154477
STARLINK-5078           
1 54857U 22177AP  25283.24166205  .00021224  00000+0  15857-2 0  9992
2 54857  43.0026 217.8509 0000823 293.3399  66.7357 15.02435200154476
STARLINK-5407           
1 54858U 22177AQ  25282.18020905 -.00000950  00000+0 -55254-4 0  9993
2 54858  43.0022 223.6383 0000956 263.7478  96.3255 15.02534006154317
