OBJECT_NAME,OBJECT_ID,EPOCH,MEAN_MOTION,ECCENTRICITY,INCLINATION,RA_OF_ASC_NODE,ARG_OF_PERICENTER,MEAN_ANOMALY,EPHEMERIS_TYPE,CLASSIFICATION_TYPE,NORAD_CAT_ID,ELEMENT_SET_NO,REV_AT_EPOCH,BSTAR,MEAN_MOTION_DOT,MEAN_MOTION_DDOT
STARLINK-4643,2022-177E,2025-10-10T06:05:09.328416,15.02547113,.00012321,43.0044,230.9469,268.7881,91.2820,0,U,54824,999,15432,-.18732791E-4,-.457E-5,0
STARLINK-5107,2022-177G,2025-10-10T05:52:22.531872,15.02532285,.00011492,43.0041,230.8830,273.1622,86.9089,0,U,54826,999,15432,.10178614E-3,.1171E-4,0
STARLINK-5383,2022-177H,2025-10-10T05:41:11.475168,15.02531849,.00008866,43.0031,230.8221,273.2990,86.7751,0,U,54827,999,15433,.5967506E-5,-.123E-5,0
STARLINK-5381,2022-177J,2025-10-10T05:36:23.646528,15.02543239,.00013381,43.0035,230.7986,277.1443,82.9247,0,U,54828,999,15432,-.56550108E-4,-.968E-5,0
STARLINK-5394,2022-177L,2025-10-10T07:04:08.076288,15.02531472,.00010553,43.0039,230.3912,271.0606,89.0116,0,U,54830,999,15433,-.9959193E-5,-.338E-5,0
STARLINK-5395,2022-177M,2025-10-10T04:19:50.270016,15.02543858,.00011938,43.0038,231.2478,266.2821,93.7885,0,U,54831,999,15431,-.12950445E-4,-.379E-5,0
STARLINK-5393,2022-177N,2025-10-08T03:28:57.421920,16.02715955,.0000942,42.9958,201.0894,135.3533,224.7423,0,U,54832,999,15448,.13129E-2,.815111E-2,.32805E-3
STARLINK-5391,2022-177P,2025-10-10T05:37:58.636416,15.02543039,.00013125,43.0038,230.8063,270.8162,89.2530,0,U,54833,999,15432,.78602003E-4,.858E-5,0
STARLINK-5386,2022-177Q,2025-10-10T05:26:48.143904,15.02533749,.00013362,43.0043,230.7457,271.2942,88.7747,0,U,54834,999,15433,.2811728E-5,-.166E-5,0
STARLINK-5389,2022-177R,2025-10-10T05:33:11.918016,15.02537985,.00012762,43.0038,230.7820,275.6314,84.4383,0,U,54835,999,15432,-.210512E-4,-.488E-5,0
STARLINK-5384,2022-177S,2025-10-10T05:22:00.361920,15.02533771,.00012756,43.0041,230.7175,266.5397,93.5299,0,U,54836,999,15433,.10890825E-3,.1268E-4,0
STARLINK-5369,2022-177T,2025-10-10T06:59:20.215680,15.02538091,.00011443,43.0034,230.3667,268.5599,91.5112,0,U,54837,999,15433,.52409143E-4,.504E-5,0
STARLINK-5372,2022-177U,2025-10-10T06:48:08.885952,15.02534486,.00011578,43.0037,230.3092,269.8384,90.2325,0,U,54838,999,15433,-.13776602E-4,-.39E-5,0
STARLINK-5368,2022-177W,2025-10-10T04:59:38.290848,15.02532344,.00013015,43.0021,230.6047,270.0465,90.0228,0,U,54840,999,15432,.12081571E-4,-.4E-6,0
STARLINK-4659,2022-177X,2025-10-10T05:17:12.785568,15.02533239,.00013362,43.0042,230.6959,267.5214,92.5476,0,U,54841,999,15432,.11778258E-4,-.45E-6,0
STARLINK-5387,2022-177Y,2025-10-09T22:27:08.146944,15.02532921,.0000957,43.0026,231.9997,237.4670,122.6080,0,U,54842,999,15428,.33553E-4,.25E-5,0
STARLINK-5304,2022-177Z,2025-10-10T05:07:37.411680,15.02535003,.00012518,43.0036,230.6472,271.9574,88.1125,0,U,54843,999,15432,.71283325E-4,.759E-5,0
STARLINK-5388,2022-177AA,2025-10-10T06:19:20.533440,15.02607477,.00018264,43.0035,230.1393,260.7251,99.3385,0,U,54844,999,15433,-.11129328E-2,-.15234E-3,0
STARLINK-5082,2022-177AB,2025-10-10T06:30:34.088832,15.02533148,.00006797,43.0015,230.2183,309.2066,50.8716,0,U,54845,999,15433,.27694841E-4,.171E-5,0
STARLINK-5360,2022-177AC,2025-10-10T06:20:58.519680,15.02534048,.000132,43.0037,230.1698,260.3617,99.7076,0,U,54846,999,15433,.18419134E-4,.45E-6,0
STARLINK-5061,2022-177AD,2025-10-10T05:24:20.790432,15.02538468,.0001418,43.0032,204.7221,269.6292,90.4388,0,U,54847,999,15462,.26958676E-3,.344E-4,0
STARLINK-5432,2022-177AE,2025-10-10T04:45:47.000160,15.02534024,.0001332,43.0028,218.3815,269.9930,90.0759,0,U,54848,999,15446,.89751763E-4,.1009E-4,0
STARLINK-5087,2022-177AG,2025-10-10T04:39:23.473152,15.02537656,.00009762,43.0032,218.3460,273.3801,86.6929,0,U,54850,999,15446,.8447981E-4,.938E-5,0
STARLINK-5084,2022-177AH,2025-10-10T04:44:11.497056,15.02532146,.00011248,43.0039,218.3747,272.0091,88.0623,0,U,54851,999,15446,.27136135E-4,.163E-5,0
STARLINK-5418,2022-177AJ,2025-10-10T04:29:48.085440,15.02536162,.00012883,43.0030,218.2965,269.8514,90.2181,0,U,54852,999,15446,.16404474E-4,.18E-6,0
STARLINK-5427,2022-177AK,2025-10-10T06:10:19.380000,15.02535703,.00013598,43.0032,217.9641,268.9357,91.1330,0,U,54853,999,15447,.29283077E-4,.192E-5,0
STARLINK-5416,2022-177AM,2025-10-10T06:00:44.223840,15.02530188,.00011534,43.0034,217.9133,263.8480,96.2231,0,U,54855,999,15447,.13335541E-3,.1598E-4,0
STARLINK-5086,2022-177AN,2025-10-10T05:31:57.441216,15.02541102,.00011551,43.0042,217.7623,266.5664,93.5046,0,U,54856,999,15447,.10831773E-3,.126E-4,0
STARLINK-5078,2022-177AP,2025-10-10T05:47:59.601120,15.02435200,.00008234,43.0026,217.8509,293.3399,66.7357,0,U,54857,999,15447,.1585665E-2,.21224E-3,0
STARLINK-5407,2022-177AQ,2025-10-09T04:19:30.061920,15.02534006,.00009566,43.0022,223.6383,263.7478,96.3255,0,U,54858,999,15431,-.552538E-4,-.95E-5,0
